{"type": "FeatureCollection", "features": [ {"type": "Feature", "properties": {"norad_id": 66839, "name": "STARLINK-35717", "group": "last-30-days", "lat": -61.31744201675768, "lon": 132.33602708594722, "alt_km": 413.93942037367015, "timestamp": "2025-12-21T14:40:46.634809+00:00", "meta": {"OBJECT_NAME": "STARLINK-35717", "OBJECT_ID": "2025-280U", "EPOCH": "2025-12-21T06:00:00.999648", "MEAN_MOTION": 15.52465003, "ECCENTRICITY": 0.00032376, "INCLINATION": 70, "RA_OF_ASC_NODE": 175.067, "ARG_OF_PERICENTER": 267.5776, "MEAN_ANOMALY": 162.8559, "EPHEMERIS_TYPE": 0, "CLASSIFICATION_TYPE": "U", "NORAD_CAT_ID": 66839, "ELEMENT_SET_NO": 999, "REV_AT_EPOCH": 426, "BSTAR": 0.0010370893, "MEAN_MOTION_DOT": 0.00064026, "MEAN_MOTION_DDOT": 0}, "tle": {"line1": "1 66839U 25280U   25355.25001157  .00064026  00000+0  10371-2 0  9991", "line2": "2 66839  70.0000 175.0670 0003237 267.5776 162.8559 15.52465003  4261"}}, "geometry": {"type": "Point", "coordinates": [132.33602708594722, -61.31744201675768]}}, {"type": "Feature", "properties": {"norad_id": 66840, "name": "STARLINK-35837", "group": "last-30-days", "lat": -58.54571088447479, "lon": 137.52864276202865, "alt_km": 413.9598280131049, "timestamp": "2025-12-21T14:40:46.634819+00:00", "meta": {"OBJECT_NAME": "STARLINK-35837", "OBJECT_ID": "2025-280V", "EPOCH": "2025-12-21T06:00:00.999648", "MEAN_MOTION": 15.52446804, "ECCENTRICITY": 0.00032429, "INCLINATION": 70, "RA_OF_ASC_NODE": 175.0625, "ARG_OF_PERICENTER": 269.4903, "MEAN_ANOMALY": 164.7712, "EPHEMERIS_TYPE": 0, "CLASSIFICATION_TYPE": "U", "NORAD_CAT_ID": 66840, "ELEMENT_SET_NO": 999, "REV_AT_EPOCH": 426, "BSTAR": 0.0011477062, "MEAN_MOTION_DOT": 0.00070888, "MEAN_MOTION_DDOT": 0}, "tle": {"line1": "1 66840U 25280V   25355.25001157  .00070888  00000+0  11477-2 0  9994", "line2": "2 66840  70.0000 175.0625 0003242 269.4903 164.7712 15.52446804  4262"}}, "geometry": {"type": "Point", "coordinates": [137.52864276202865, -58.54571088447479]}}, {"type": "Feature", "properties": {"norad_id": 66841, "name": "STARLINK-35715", "group": "last-30-days", "lat": -57.06193402965732, "lon": 139.8625699116137, "alt_km": 413.98384689568593, "timestamp": "2025-12-21T14:40:46.634829+00:00", "meta": {"OBJECT_NAME": "STARLINK-35715", "OBJECT_ID": "2025-280W", "EPOCH": "2025-12-21T06:00:00.999648", "MEAN_MOTION": 15.52467902, "ECCENTRICITY": 0.00031768, "INCLINATION": 69.9999, "RA_OF_ASC_NODE": 175.0607, "ARG_OF_PERICENTER": 268.2078, "MEAN_ANOMALY": 167.9686, "EPHEMERIS_TYPE": 0, "CLASSIFICATION_TYPE": "U", "NORAD_CAT_ID": 66841, "ELEMENT_SET_NO": 999, "REV_AT_EPOCH": 426, "BSTAR": 0.001022648, "MEAN_MOTION_DOT": 0.00063131, "MEAN_MOTION_DDOT": 0}, "tle": {"line1": "1 66841U 25280W   25355.25001157  .00063131  00000+0  10226-2 0  9999", "line2": "2 66841  69.9999 175.0607 0003176 268.2078 167.9686 15.52467902  4260"}}, "geometry": {"type": "Point", "coordinates": [139.8625699116137, -57.06193402965732]}}, {"type": "Feature", "properties": {"norad_id": 66842, "name": "STARLINK-35769", "group": "last-30-days", "lat": -55.55338961214379, "lon": 141.99388420818784, "alt_km": 414.098502540809, "timestamp": "2025-12-21T14:40:46.634839+00:00", "meta": {"OBJECT_NAME": "STARLINK-35769", "OBJECT_ID": "2025-280X", "EPOCH": "2025-12-21T06:00:00.999648", "MEAN_MOTION": 15.52465613, "ECCENTRICITY": 0.00030864, "INCLINATION": 70, "RA_OF_ASC_NODE": 175.0583, "ARG_OF_PERICENTER": 265.4331, "MEAN_ANOMALY": 172.6644, "EPHEMERIS_TYPE": 0, "CLASSIFICATION_TYPE": "U", "NORAD_CAT_ID": 66842, "ELEMENT_SET_NO": 999, "REV_AT_EPOCH": 426, "BSTAR": 0.0010555441, "MEAN_MOTION_DOT": 0.00065178, "MEAN_MOTION_DDOT": 0}, "tle": {"line1": "1 66842U 25280X   25355.25001157  .00065178  00000+0  10555-2 0  9998", "line2": "2 66842  70.0000 175.0583 0003086 265.4331 172.6644 15.52465613  4265"}}, "geometry": {"type": "Point", "coordinates": [141.99388420818784, -55.55338961214379]}}, {"type": "Feature", "properties": {"norad_id": 66843, "name": "STARLINK-35997", "group": "last-30-days", "lat": -52.44477943577486, "lon": 145.78624466621577, "alt_km": 413.96548582281775, "timestamp": "2025-12-21T14:40:46.634851+00:00", "meta": {"OBJECT_NAME": "STARLINK-35997", "OBJECT_ID": "2025-280Y", "EPOCH": "2025-12-21T06:00:00.999648", "MEAN_MOTION": 15.52467813, "ECCENTRICITY": 0.00032045, "INCLINATION": 70.0001, "RA_OF_ASC_NODE": 175.0528, "ARG_OF_PERICENTER": 269.062, "MEAN_ANOMALY": 172.8664, "EPHEMERIS_TYPE": 0, "CLASSIFICATION_TYPE": "U", "NORAD_CAT_ID": 66843, "ELEMENT_SET_NO": 999, "REV_AT_EPOCH": 426, "BSTAR": 0.0010037117, "MEAN_MOTION_DOT": 0.0006195, "MEAN_MOTION_DDOT": 0}, "tle": {"line1": "1 66843U 25280Y   25355.25001157  .00061950  00000+0  10037-2 0  9998", "line2": "2 66843  70.0001 175.0528 0003204 269.0620 172.8664 15.52467813  4267"}}, "geometry": {"type": "Point", "coordinates": [145.78624466621577, -52.44477943577486]}}, {"type": "Feature", "properties": {"norad_id": 66844, "name": "STARLINK-36073", "group": "last-30-days", "lat": -54.0106548906602, "lon": 143.96512202688433, "alt_km": 413.93220290458703, "timestamp": "2025-12-21T14:40:46.634863+00:00", "meta": {"OBJECT_NAME": "STARLINK-36073", "OBJECT_ID": "2025-280Z", "EPOCH": "2025-12-21T06:00:00.999648", "MEAN_MOTION": 15.52576819, "ECCENTRICITY": 0.00033622, "INCLINATION": 69.9999, "RA_OF_ASC_NODE": 175.0559, "ARG_OF_PERICENTER": 268.2437, "MEAN_ANOMALY": 171.7072, "EPHEMERIS_TYPE": 0, "CLASSIFICATION_TYPE": "U", "NORAD_CAT_ID": 66844, "ELEMENT_SET_NO": 999, "REV_AT_EPOCH": 426, "BSTAR": -0.0016646484, "MEAN_MOTION_DOT": -0.00101495, "MEAN_MOTION_DDOT": 0}, "tle": {"line1": "1 66844U 25280Z   25355.25001157 -.00101495  00000+0 -16646-2 0  9992", "line2": "2 66844  69.9999 175.0559 0003362 268.2437 171.7072 15.52576819  4265"}}, "geometry": {"type": "Point", "coordinates": [143.96512202688433, -54.0106548906602]}}, {"type": "Feature", "properties": {"norad_id": 66845, "name": "STARLINK-36068", "group": "last-30-days", "lat": -47.5901820826216, "lon": 150.55639833835062, "alt_km": 413.9123435634601, "timestamp": "2025-12-21T14:40:46.634875+00:00", "meta": {"OBJECT_NAME": "STARLINK-36068", "OBJECT_ID": "2025-280AA", "EPOCH": "2025-12-21T06:00:00.999648", "MEAN_MOTION": 15.5247099, "ECCENTRICITY": 0.00032833, "INCLINATION": 70.0001, "RA_OF_ASC_NODE": 175.0462, "ARG_OF_PERICENTER": 269.0752, "MEAN_ANOMALY": 178.5971, "EPHEMERIS_TYPE": 0, "CLASSIFICATION_TYPE": "U", "NORAD_CAT_ID": 66845, "ELEMENT_SET_NO": 999, "REV_AT_EPOCH": 426, "BSTAR": 0.00097546767, "MEAN_MOTION_DOT": 0.00060196, "MEAN_MOTION_DDOT": 0}, "tle": {"line1": "1 66845U 25280AA  25355.25001157  .00060196  00000+0  97547-3 0  9993", "line2": "2 66845  70.0001 175.0462 0003283 269.0752 178.5971 15.52470990  4263"}}, "geometry": {"type": "Point", "coordinates": [150.55639833835062, -47.5901820826216]}}, {"type": "Feature", "properties": {"norad_id": 66846, "name": "STARLINK-36055", "group": "last-30-days", "lat": -50.85031699823212, "lon": 147.4825997439815, "alt_km": 413.9001719775397, "timestamp": "2025-12-21T14:40:46.634885+00:00", "meta": {"OBJECT_NAME": "STARLINK-36055", "OBJECT_ID": "2025-280AB", "EPOCH": "2025-12-21T06:00:00.999648", "MEAN_MOTION": 15.52458315, "ECCENTRICITY": 0.00032359, "INCLINATION": 69.9999, "RA_OF_ASC_NODE": 175.0494, "ARG_OF_PERICENTER": 269.2594, "MEAN_ANOMALY": 174.5799, "EPHEMERIS_TYPE": 0, "CLASSIFICATION_TYPE": "U", "NORAD_CAT_ID": 66846, "ELEMENT_SET_NO": 999, "REV_AT_EPOCH": 426, "BSTAR": 0.0015369475, "MEAN_MOTION_DOT": 0.0009532, "MEAN_MOTION_DDOT": 0}, "tle": {"line1": "1 66846U 25280AB  25355.25001157  .00095320  00000+0  15369-2 0  9992", "line2": "2 66846  69.9999 175.0494 0003235 269.2594 174.5799 15.52458315  4266"}}, "geometry": {"type": "Point", "coordinates": [147.4825997439815, -50.85031699823212]}}, {"type": "Feature", "properties": {"norad_id": 66847, "name": "STARLINK-36061", "group": "last-30-days", "lat": -49.228724410280165, "lon": 149.07280812225503, "alt_km": 413.99482825234645, "timestamp": "2025-12-21T14:40:46.634895+00:00", "meta": {"OBJECT_NAME": "STARLINK-36061", "OBJECT_ID": "2025-280AC", "EPOCH": "2025-12-21T06:00:00.999648", "MEAN_MOTION": 15.52468734, "ECCENTRICITY": 0.00031977, "INCLINATION": 70, "RA_OF_ASC_NODE": 175.0487, "ARG_OF_PERICENTER": 268.0545, "MEAN_ANOMALY": 177.7066, "EPHEMERIS_TYPE": 0, "CLASSIFICATION_TYPE": "U", "NORAD_CAT_ID": 66847, "ELEMENT_SET_NO": 999, "REV_AT_EPOCH": 421, "BSTAR": 0.00095666234, "MEAN_MOTION_DOT": 0.00059018, "MEAN_MOTION_DDOT": 0}, "tle": {"line1": "1 66847U 25280AC  25355.25001157  .00059018  00000+0  95666-3 0  9996", "line2": "2 66847  70.0000 175.0487 0003197 268.0545 177.7066 15.52468734  4218"}}, "geometry": {"type": "Point", "coordinates": [149.07280812225503, -49.228724410280165]}}, {"type": "Feature", "properties": {"norad_id": 66848, "name": "STARLINK-36091", "group": "last-30-days", "lat": -41.275085529446415, "lon": -2.2206443918114425, "alt_km": 361.6912558418371, "timestamp": "2025-12-21T14:40:46.634905+00:00", "meta": {"OBJECT_NAME": "STARLINK-36091", "OBJECT_ID": "2025-281A", "EPOCH": "2025-12-21T06:00:00.999648", "MEAN_MOTION": 15.713854, "ECCENTRICITY": 0.00011768, "INCLINATION": 43.0003, "RA_OF_ASC_NODE": 70.3408, "ARG_OF_PERICENTER": 277.2523, "MEAN_ANOMALY": 120.1014, "EPHEMERIS_TYPE": 0, "CLASSIFICATION_TYPE": "U", "NORAD_CAT_ID": 66848, "ELEMENT_SET_NO": 999, "REV_AT_EPOCH": 276, "BSTAR": -0.016542999, "MEAN_MOTION_DOT": -0.01925545, "MEAN_MOTION_DDOT": 0}, "tle": {"line1": "1 66848U 25281A   25355.25001157 -.01925545  00000+0 -16543-1 0  9993", "line2": "2 66848  43.0003  70.3408 0001176 277.2523 120.1014 15.71385400  2767"}}, "geometry": {"type": "Point", "coordinates": [-2.2206443918114425, -41.275085529446415]}}]}